{
  "norad_id": 58858,
  "name": "STARLINK-31226",
  "history": [
    {
      "epoch": "2026-04-15T04:38:57.515136Z",
      "apogee_km": 483.6015887907042,
      "perigee_km": 482.49048880940154,
      "latitude_deg": 9.846204869772902e-06,
      "longitude_deg": 129.80656699377772,
      "height_km": 482.8164485341749,
      "semi_major_axis_km": 6861.183038800053,
      "eccentricity": 8.097e-05,
      "inclination_deg": 43.0026,
      "raan_deg": 42.9055,
      "arg_perigee_deg": 270.6259,
      "mean_anomaly_deg": 89.45,
      "mean_motion_rev_day": 15.27581021
    },
    {
      "epoch": "2026-04-16T12:02:05.349984Z",
      "apogee_km": 483.5485053288767,
      "perigee_km": 482.57695944677016,
      "latitude_deg": 3.291563239925207e-05,
      "longitude_deg": 10.349491874964553,
      "height_km": 482.8279567840295,
      "semi_major_axis_km": 6861.199732387823,
      "eccentricity": 7.08e-05,
      "inclination_deg": 43.0024,
      "raan_deg": 35.52,
      "arg_perigee_deg": 271.3137,
      "mean_anomaly_deg": 88.7634,
      "mean_motion_rev_day": 15.27575446
    },
    {
      "epoch": "2026-04-17T22:33:31.876128Z",
      "apogee_km": 483.59083320593345,
      "perigee_km": 482.5347573334466,
      "latitude_deg": 2.8583617070322022e-06,
      "longitude_deg": -157.05251548420316,
      "height_km": 482.7815328851209,
      "semi_major_axis_km": 6861.19979526969,
      "eccentricity": 7.696e-05,
      "inclination_deg": 43.0024,
      "raan_deg": 27.3964,
      "arg_perigee_deg": 276.2719,
      "mean_anomaly_deg": 83.8045,
      "mean_motion_rev_day": 15.27575425
    },
    {
      "epoch": "2026-04-18T11:06:46.825344Z",
      "apogee_km": 483.6410155157946,
      "perigee_km": 482.4752984586221,
      "latitude_deg": -2.583034087193483e-05,
      "longitude_deg": 11.16558486425585,
      "height_km": 482.8098973482384,
      "semi_major_axis_km": 6861.195156987208,
      "eccentricity": 8.495e-05,
      "inclination_deg": 43.0028,
      "raan_deg": 24.4424,
      "arg_perigee_deg": 272.4389,
      "mean_anomaly_deg": 87.6365,
      "mean_motion_rev_day": 15.27576974
    },
    {
      "epoch": "2026-04-19T10:39:07.050240Z",
      "apogee_km": 483.6167492628392,
      "perigee_km": 482.4894557289999,
      "latitude_deg": 1.0189523166578986e-05,
      "longitude_deg": 11.571941927554509,
      "height_km": 482.561924609999,
      "semi_major_axis_km": 6861.19010249592,
      "eccentricity": 8.215e-05,
      "inclination_deg": 43.0072,
      "raan_deg": 18.8997,
      "arg_perigee_deg": 298.4049,
      "mean_anomaly_deg": 61.672,
      "mean_motion_rev_day": 15.27578662
    },
    {
      "epoch": "2026-04-20T10:11:28.999680Z",
      "apogee_km": 483.85201855305604,
      "perigee_km": 482.3092051608537,
      "latitude_deg": 2.3161512587126482e-05,
      "longitude_deg": 11.975268069491744,
      "height_km": 482.62575541658765,
      "semi_major_axis_km": 6861.217611856955,
      "eccentricity": 0.00011243,
      "inclination_deg": 43.0011,
      "raan_deg": 13.3612,
      "arg_perigee_deg": 287.4585,
      "mean_anomaly_deg": 72.6144,
      "mean_motion_rev_day": 15.27569475
    },
    {
      "epoch": "2026-04-21T01:53:01.881600Z",
      "apogee_km": 483.8874890665902,
      "perigee_km": 482.1649254317781,
      "latitude_deg": 2.2124035591646574e-06,
      "longitude_deg": 132.25066952365236,
      "height_km": 482.7570035725211,
      "semi_major_axis_km": 6861.163207249184,
      "eccentricity": 0.00012553,
      "inclination_deg": 43.0013,
      "raan_deg": 9.6681,
      "arg_perigee_deg": 273.0571,
      "mean_anomaly_deg": 87.0137,
      "mean_motion_rev_day": 15.27587644
    },
    {
      "epoch": "2026-04-22T02:59:31.518240Z",
      "apogee_km": 483.89368308547637,
      "perigee_km": 482.10690571126906,
      "latitude_deg": -3.8888791721845586e-05,
      "longitude_deg": 108.68777852334176,
      "height_km": 482.42507782734583,
      "semi_major_axis_km": 6861.137294398372,
      "eccentricity": 0.00013021,
      "inclination_deg": 43.0079,
      "raan_deg": 3.7599,
      "arg_perigee_deg": 293.2514,
      "mean_anomaly_deg": 66.82,
      "mean_motion_rev_day": 15.27596298
    },
    {
      "epoch": "2026-04-23T02:31:53.738976Z",
      "apogee_km": 483.85145664837,
      "perigee_km": 482.2753016972656,
      "latitude_deg": 3.752676779938202e-05,
      "longitude_deg": 109.08923813271755,
      "height_km": 482.77852238601304,
      "semi_major_axis_km": 6861.2003791728175,
      "eccentricity": 0.00011486,
      "inclination_deg": 43.0053,
      "raan_deg": 358.2206,
      "arg_perigee_deg": 274.5078,
      "mean_anomaly_deg": 85.5643,
      "mean_motion_rev_day": 15.2757523
    },
    {
      "epoch": "2026-04-24T08:20:51.662688Z",
      "apogee_km": 483.5356333904447,
      "perigee_km": 482.591532190253,
      "latitude_deg": -7.4118668888131045e-06,
      "longitude_deg": 13.607336212693175,
      "height_km": 482.5693668334893,
      "semi_major_axis_km": 6861.200582790349,
      "eccentricity": 6.88e-05,
      "inclination_deg": 43.0074,
      "raan_deg": 351.2046,
      "arg_perigee_deg": 305.0421,
      "mean_anomaly_deg": 55.0366,
      "mean_motion_rev_day": 15.27575162
    },
    {
      "epoch": "2026-04-25T15:43:59.289312Z",
      "apogee_km": 483.93485880512617,
      "perigee_km": 482.15644026236714,
      "latitude_deg": -1.748485989438653e-05,
      "longitude_deg": -105.84750746150716,
      "height_km": 483.11147802287053,
      "semi_major_axis_km": 6861.182649533746,
      "eccentricity": 0.0001296,
      "inclination_deg": 43.0034,
      "raan_deg": 343.8205,
      "arg_perigee_deg": 251.0385,
      "mean_anomaly_deg": 109.0326,
      "mean_motion_rev_day": 15.27581151
    },
    {
      "epoch": "2026-04-26T07:25:32.361312Z",
      "apogee_km": 484.0522303405696,
      "perigee_km": 482.0056817591985,
      "latitude_deg": 1.3968762271128264e-05,
      "longitude_deg": 14.428657335704493,
      "height_km": 482.6444073783635,
      "semi_major_axis_km": 6861.165956049884,
      "eccentricity": 0.00014914,
      "inclination_deg": 42.9997,
      "raan_deg": 340.1289,
      "arg_perigee_deg": 279.0693,
      "mean_anomaly_deg": 80.999,
      "mean_motion_rev_day": 15.27586726
    },
    {
      "epoch": "2026-04-27T21:05:18.948192Z",
      "apogee_km": 484.1566594916003,
      "perigee_km": 481.9679369154728,
      "latitude_deg": -5.281032978332024e-06,
      "longitude_deg": 159.07496389613692,
      "height_km": 482.8905582367476,
      "semi_major_axis_km": 6861.199298203536,
      "eccentricity": 0.0001595,
      "inclination_deg": 43.003,
      "raan_deg": 331.2661,
      "arg_perigee_deg": 267.3251,
      "mean_anomaly_deg": 92.7418,
      "mean_motion_rev_day": 15.27575591
    },
    {
      "epoch": "2026-04-28T20:37:39.727776Z",
      "apogee_km": 484.2439431898056,
      "perigee_km": 481.9248503576955,
      "latitude_deg": -1.9375755951797233e-05,
      "longitude_deg": 159.48235126649558,
      "height_km": 482.79767767015284,
      "semi_major_axis_km": 6861.22139677375,
      "eccentricity": 0.000169,
      "inclination_deg": 43.0042,
      "raan_deg": 325.7268,
      "arg_perigee_deg": 273.1706,
      "mean_anomaly_deg": 86.8952,
      "mean_motion_rev_day": 15.27568211
    },
    {
      "epoch": "2026-04-29T20:10:00.364800Z",
      "apogee_km": 483.9484883331761,
      "perigee_km": 482.14262508424963,
      "latitude_deg": 7.216754770104425e-06,
      "longitude_deg": 159.89047725200945,
      "height_km": 482.83813348511995,
      "semi_major_axis_km": 6861.182556708713,
      "eccentricity": 0.0001316,
      "inclination_deg": 43.0048,
      "raan_deg": 320.1876,
      "arg_perigee_deg": 269.0219,
      "mean_anomaly_deg": 91.0482,
      "mean_motion_rev_day": 15.27581182
    },
    {
      "epoch": "2026-04-29T23:18:18.765792Z",
      "apogee_km": 483.91291093658856,
      "perigee_km": 482.17785513556646,
      "latitude_deg": 1.4995763816367133e-05,
      "longitude_deg": 111.94652343551321,
      "height_km": 482.81124199608064,
      "semi_major_axis_km": 6861.182383036077,
      "eccentricity": 0.00012644,
      "inclination_deg": 43.0041,
      "raan_deg": 319.4492,
      "arg_perigee_deg": 270.7388,
      "mean_anomaly_deg": 89.3319,
      "mean_motion_rev_day": 15.2758124
    },
    {
      "epoch": "2026-05-01T22:23:00.496896Z",
      "apogee_km": 483.8562949259813,
      "perigee_km": 482.2301952079006,
      "latitude_deg": -1.3469291348626848e-06,
      "longitude_deg": 112.76398931532546,
      "height_km": 482.7760677904418,
      "semi_major_axis_km": 6861.180245066941,
      "eccentricity": 0.0001185,
      "inclination_deg": 43.0016,
      "raan_deg": 308.374,
      "arg_perigee_deg": 273.0938,
      "mean_anomaly_deg": 86.9778,
      "mean_motion_rev_day": 15.27581954
    },
    {
      "epoch": "2026-05-03T19:53:33.858240Z",
      "apogee_km": 483.9800371262818,
      "perigee_km": 482.1398641041269,
      "latitude_deg": 4.087161563474122e-05,
      "longitude_deg": 137.54692473594523,
      "height_km": 482.76640060049766,
      "semi_major_axis_km": 6861.1969506152045,
      "eccentricity": 0.0001341,
      "inclination_deg": 43.0025,
      "raan_deg": 297.6649,
      "arg_perigee_deg": 274.3935,
      "mean_anomaly_deg": 85.6764,
      "mean_motion_rev_day": 15.27576375
    },
    {
      "epoch": "2026-05-04T19:25:53.676192Z",
      "apogee_km": 483.9122988404124,
      "perigee_km": 482.136630253387,
      "latitude_deg": 4.355856498491557e-05,
      "longitude_deg": 137.958143653337,
      "height_km": 482.8098086903873,
      "semi_major_axis_km": 6861.161464546899,
      "eccentricity": 0.0001294,
      "inclination_deg": 43.0025,
      "raan_deg": 292.1254,
      "arg_perigee_deg": 269.4541,
      "mean_anomaly_deg": 90.6163,
      "mean_motion_rev_day": 15.27588226
    }
  ]
}